SL-14 R/B               
1 20511U 90018B   26201.76521513  .00000200  00000+0  22039-4 0  9999
2 20511  82.5213  98.7239 0016609  19.2771 340.9068 14.82236208942291
HST                     
1 20580U 90037B   26201.71489370  .00003416  00000+0  10306-3 0  9990
2 20580  28.4721 211.3592 0002084 156.9288 203.1402 15.31093862793714
SL-16 R/B               
1 20625U 90046B   26201.80927464  .00000275  00000+0  16627-3 0  9993
2 20625  70.9996  18.3318 0012241 104.3978 255.8504 14.15028317867229
COSMOS 2084             
1 20663U 90055A   26201.85450596  .00000964  00000+0  79161-4 0  9995
2 20663  62.7874 241.1678 0008803 323.2574  36.7922 15.06235842956372
SL-6 R/B(2)             
1 20666U 90055D   26201.62424098  .00001161  00000+0  96335-4 0  9993
2 20666  62.7810 161.5836 0045984   9.7412 350.4567 15.04102023958188
SL-8 R/B                
1 20775U 90078B   26201.83627330  .00008326  00000+0  23595-3 0  9993
2 20775  82.9031 131.2033 0342925 284.3082  72.0295 14.93666533829146
SL-8 R/B                
1 21088U 91006B   26201.76846067  .00000069  00000+0  54158-4 0  9991
2 21088  82.9402  71.0485 0023104  25.4426  46.0638 13.77510014782399
OKEAN-3                 
1 21397U 91039A   26201.43990648  .00001678  00000+0  11473-3 0  9998
2 21397  82.5150 208.1315 0012899 234.3620 125.6406 15.05452780885006
COSMOS 2151             
1 21422U 91042A   26201.80327582  .00001005  00000+0  77536-4 0  9990
2 21422  82.4983 315.2393 0011444 335.8148  24.2537 15.00522860883156
SL-14 R/B               
1 21423U 91042B   26201.77892490  .00000180  00000+0  19746-4 0  9994
2 21423  82.4929  95.3951 0017465 158.8562 201.3378 14.81919872872784
ERS-1                   
1 21574U 91050A   26201.80631677  .00000226  00000+0  86717-4 0  9995
2 21574  98.7797 223.3254 0032280 165.3291 194.8841 14.39536198834886
ARIANE 40 R/B           
1 21610U 91050F   26201.74933463  .00000110  00000+0  45174-4 0  9991
2 21610  98.1858 248.8558 0003894  48.8705 311.2821 14.42973643838186
INTERCOSMOS 25          
1 21819U 91086A   26201.12842419  .00000538  00000+0  10286-3 0  9992
2 21819  82.6000 229.8758 1484817 191.2811 165.1215 12.12243073512730
SL-8 R/B                
1 21876U 92008B   26201.86639777  .00000131  00000+0  11858-3 0  9997
2 21876  82.9278 168.7475 0035931 121.2399 300.5513 13.75984841727731
SL-8 R/B                
1 21938U 92020B   26201.86762148 -.00000013  00000+0 -29244-4 0  9999
2 21938  82.9275  54.8352 0027796 286.9893  83.7914 13.75549803719443
USA 81                  
1 21949U 92023A   26201.52632677  .00000089  00000+0  25448-4 0  9993
2 21949  85.0047  54.7597 0001748  64.8666 295.2708 14.32405784113808
COSMOS 2219             
1 22219U 92076A   26201.86151134 -.00000285  00000+0 -12461-3 0  9993
2 22219  71.0607  99.6791 0018590 349.0355  11.0360 14.14106502737206
SL-16 R/B               
1 22220U 92076B   26201.42879777 -.00000170  00000+0 -60856-4 0  9992
2 22220  70.9998 268.7569 0015039 255.5290 194.1594 14.16877797740631
COSMOS 2221             
1 22236U 92080A   26201.83697541  .00001032  00000+0  88083-4 0  9994
2 22236  82.5051 151.5256 0015919 102.9810 257.3191 14.96614209800704
SL-16 R/B               
1 22285U 92093B   26201.88106625 -.00000221  00000+0 -88870-4 0  9990
2 22285  71.0212  84.6592 0002163 118.2594 241.8748 14.15463686732000
COSMOS 2228             
1 22286U 92094A   26201.82845270  .00001083  00000+0  90020-4 0  9997
2 22286  82.5185 109.8193 0016738 208.9099 151.1198 14.97686007795986
SL-16 R/B               
1 22566U 93016B   26201.72335808  .00000276  00000+0  16585-3 0  9999
2 22566  71.0087 295.7699 0008561 128.0911 232.0985 14.15315995720994
COSMOS 2242             
1 22626U 93024A   26201.80336377  .00000894  00000+0  75260-4 0  9998
2 22626  82.5202 139.3817 0015036 212.3320 147.6983 14.96994581800304
SL-16 R/B               
1 22803U 93059B   26201.87437001  .00000206  00000+0  12581-3 0  9999
2 22803  70.9902  90.2645 0016987   0.0591   0.0532 14.17250420698409
ARIANE 40 R/B           
1 22830U 93061H   26201.79261051  .00000064  00000+0  39189-4 0  9999
2 22830  98.4801 267.9489 0009623 247.1360 112.8809 14.32919791713168
COSMOS 2278             
1 23087U 94023A   26201.84024705  .00000198  00000+0  12813-3 0  9994
2 23087  71.0516 256.5150 0009322 197.1860 162.8948 14.14394918663630
SL-16 R/B               
1 23088U 94023B   26201.61489410  .00000324  00000+0  19194-3 0  9998
2 23088  70.9995 151.7300 0001271 106.2778 253.8484 14.15027415664898
SL-16 R/B               
1 23343U 94074B   26201.34470312  .00000196  00000+0  32717-4 0  9993
2 23343  97.6985 226.6826 0007520 139.3222 231.4206 14.79526813706860
SL-16 R/B               
1 23405U 94077B   26201.82730684  .00000217  00000+0  13539-3 0  9993
2 23405  70.9821  72.3901 0004170 299.1077  60.9628 14.15575649635071
ARIANE 40+ R/B          
1 23561U 95021B   26201.83835351  .00000141  00000+0  58618-4 0  9998
2 23561  98.4396 271.4246 0007944 102.4185  14.5041 14.39849600638409
SL-16 R/B               
1 23705U 95058B   26201.41669031  .00000275  00000+0  16477-3 0  9996
2 23705  71.0205 261.5926 0014701 276.1003  83.8445 14.15511804586637
